GLOBALSTAR M035         
1 25851U 99037A   25237.83355892 -.00000050  00000+0  52572-3 0  9990
2 25851  51.9924 259.6508 0013456  94.7244  75.9730 11.04539376103955
GLOBALSTAR M032         
1 25852U 99037B   25237.82573190 -.00000030  00000+0  11784-2 0  9990
2 25852  51.9950  80.0583 0011710 285.5259  74.4248 11.19062675142580
GLOBALSTAR M051         
1 25853U 99037C   25237.97729397 -.00000080  00000+0 -18787-3 0  9996
2 25853  51.9758 232.5326 0000630 343.3400  16.7390 11.42205372140366
GLOBALSTAR M030         
1 25854U 99037D   25237.83072878 -.00000077  00000+0 -43155-4 0  9991
2 25854  51.9899  34.5611 0003396 158.9491 201.1466 11.55113405158094
GLOBALSTAR M048         
1 25872U 99041A   25237.33979256 -.00000070  00000+0  33238-5 0  9991
2 25872  51.9353 171.7770 0013569 306.8299 197.7733 11.33858524132826
GLOBALSTAR M026         
1 25873U 99041B   25237.67581407 -.00000060  00000+0  14923-3 0  9993
2 25873  52.0048  17.2250 0001987  47.9854 324.8916 11.06849606156180
GLOBALSTAR M043         
1 25874U 99041C   25237.44997817 -.00000024  00000+0  13105-2 0  9995
2 25874  51.9392 281.9243 0013445  71.1997  32.3551 11.25695572130676
GLOBALSTAR M028         
1 25875U 99041D   25237.60693341 -.00000067  00000+0  21489-3 0  9991
2 25875  51.9654 346.0675 0063116 221.6033 138.0016 12.50586164198863
